{"fetched_at":"2026-07-14T17:41:06.436Z","source":"https://celestrak.org/NORAD/elements/gp.php?NAME=SPACEMOBILE&FORMAT=JSON","constellation":"ast-spacemobile","records":[{"OBJECT_NAME":"SPACEMOBILE-003","OBJECT_ID":"2024-163A","EPOCH":"2026-07-14T03:52:59.621088","CLASSIFICATION_TYPE":"U","MEAN_MOTION":15.20702085,"ECCENTRICITY":0.00048,"INCLINATION":52.9668,"RA_OF_ASC_NODE":185.3958,"ARG_OF_PERICENTER":190.5328,"MEAN_ANOMALY":169.5566,"EPHEMERIS_TYPE":0,"NORAD_CAT_ID":61045,"ELEMENT_SET_NO":999,"REV_AT_EPOCH":10187,"BSTAR":0.000038587,"MEAN_MOTION_DOT":0.00000532,"MEAN_MOTION_DDOT":0},{"OBJECT_NAME":"SPACEMOBILE-005","OBJECT_ID":"2024-163B","EPOCH":"2026-07-13T02:14:56.738400","CLASSIFICATION_TYPE":"U","MEAN_MOTION":15.2074616,"ECCENTRICITY":0.00085164,"INCLINATION":52.9757,"RA_OF_ASC_NODE":190.2542,"ARG_OF_PERICENTER":188.4778,"MEAN_ANOMALY":171.6074,"EPHEMERIS_TYPE":0,"NORAD_CAT_ID":61046,"ELEMENT_SET_NO":999,"REV_AT_EPOCH":10170,"BSTAR":0.000029081362,"MEAN_MOTION_DOT":0.0000032,"MEAN_MOTION_DDOT":0},{"OBJECT_NAME":"SPACEMOBILE-001","OBJECT_ID":"2024-163C","EPOCH":"2026-07-11T10:46:43.885920","CLASSIFICATION_TYPE":"U","MEAN_MOTION":15.20792937,"ECCENTRICITY":0.00074751,"INCLINATION":52.9736,"RA_OF_ASC_NODE":197.5273,"ARG_OF_PERICENTER":183.3179,"MEAN_ANOMALY":176.7767,"EPHEMERIS_TYPE":0,"NORAD_CAT_ID":61047,"ELEMENT_SET_NO":999,"REV_AT_EPOCH":10145,"BSTAR":0.000028550562,"MEAN_MOTION_DOT":0.00000309,"MEAN_MOTION_DDOT":0},{"OBJECT_NAME":"SPACEMOBILE-002","OBJECT_ID":"2024-163D","EPOCH":"2026-07-14T03:03:37.105920","CLASSIFICATION_TYPE":"U","MEAN_MOTION":15.20784147,"ECCENTRICITY":0.0006347,"INCLINATION":52.9768,"RA_OF_ASC_NODE":185.2488,"ARG_OF_PERICENTER":186.0416,"MEAN_ANOMALY":174.0502,"EPHEMERIS_TYPE":0,"NORAD_CAT_ID":61048,"ELEMENT_SET_NO":999,"REV_AT_EPOCH":10186,"BSTAR":0.00039857,"MEAN_MOTION_DOT":0.00008581,"MEAN_MOTION_DDOT":0},{"OBJECT_NAME":"SPACEMOBILE-004","OBJECT_ID":"2024-163E","EPOCH":"2026-07-12T09:38:01.727232","CLASSIFICATION_TYPE":"U","MEAN_MOTION":15.2079556,"ECCENTRICITY":0.0006853,"INCLINATION":52.9682,"RA_OF_ASC_NODE":192.9673,"ARG_OF_PERICENTER":216.7757,"MEAN_ANOMALY":143.2768,"EPHEMERIS_TYPE":0,"NORAD_CAT_ID":61049,"ELEMENT_SET_NO":999,"REV_AT_EPOCH":10160,"BSTAR":0.00058302,"MEAN_MOTION_DOT":0.00012717,"MEAN_MOTION_DDOT":0},{"OBJECT_NAME":"SPACEMOBILE-001 DEB","OBJECT_ID":"2024-163F","EPOCH":"2026-07-14T03:18:09.479808","CLASSIFICATION_TYPE":"U","MEAN_MOTION":15.35376925,"ECCENTRICITY":0.0005744,"INCLINATION":52.9929,"RA_OF_ASC_NODE":152.4942,"ARG_OF_PERICENTER":249.0917,"MEAN_ANOMALY":110.9469,"EPHEMERIS_TYPE":0,"NORAD_CAT_ID":62369,"ELEMENT_SET_NO":999,"REV_AT_EPOCH":9064,"BSTAR":0.00016363,"MEAN_MOTION_DOT":0.00005327,"MEAN_MOTION_DDOT":0},{"OBJECT_NAME":"SPACEMOBILE-002 DEB","OBJECT_ID":"2024-163G","EPOCH":"2026-07-14T02:53:26.359872","CLASSIFICATION_TYPE":"U","MEAN_MOTION":15.43792576,"ECCENTRICITY":0.0004543,"INCLINATION":52.9418,"RA_OF_ASC_NODE":136.7687,"ARG_OF_PERICENTER":281.7902,"MEAN_ANOMALY":78.2592,"EPHEMERIS_TYPE":0,"NORAD_CAT_ID":62370,"ELEMENT_SET_NO":999,"REV_AT_EPOCH":10252,"BSTAR":0.00028811,"MEAN_MOTION_DOT":0.00012852,"MEAN_MOTION_DDOT":0},{"OBJECT_NAME":"SPACEMOBILE-003 DEB","OBJECT_ID":"2024-163H","EPOCH":"2026-07-14T03:39:58.264416","CLASSIFICATION_TYPE":"U","MEAN_MOTION":15.41538032,"ECCENTRICITY":0.0005447,"INCLINATION":52.9689,"RA_OF_ASC_NODE":143.4971,"ARG_OF_PERICENTER":232.9344,"MEAN_ANOMALY":127.1161,"EPHEMERIS_TYPE":0,"NORAD_CAT_ID":62371,"ELEMENT_SET_NO":999,"REV_AT_EPOCH":9604,"BSTAR":0.00028213,"MEAN_MOTION_DOT":0.00011638,"MEAN_MOTION_DDOT":0},{"OBJECT_NAME":"SPACEMOBILE-004 DEB","OBJECT_ID":"2024-163J","EPOCH":"2026-07-14T04:05:57.393024","CLASSIFICATION_TYPE":"U","MEAN_MOTION":15.40746552,"ECCENTRICITY":0.0002686,"INCLINATION":52.9838,"RA_OF_ASC_NODE":143.0576,"ARG_OF_PERICENTER":260.3679,"MEAN_ANOMALY":99.7021,"EPHEMERIS_TYPE":0,"NORAD_CAT_ID":62372,"ELEMENT_SET_NO":999,"REV_AT_EPOCH":9911,"BSTAR":0.00020887,"MEAN_MOTION_DOT":0.00008276,"MEAN_MOTION_DDOT":0},{"OBJECT_NAME":"SPACEMOBILE-005 DEB","OBJECT_ID":"2024-163K","EPOCH":"2026-07-14T03:49:28.532928","CLASSIFICATION_TYPE":"U","MEAN_MOTION":15.34646364,"ECCENTRICITY":0.0005672,"INCLINATION":52.9735,"RA_OF_ASC_NODE":157.2883,"ARG_OF_PERICENTER":225.998,"MEAN_ANOMALY":134.0553,"EPHEMERIS_TYPE":0,"NORAD_CAT_ID":62373,"ELEMENT_SET_NO":999,"REV_AT_EPOCH":10226,"BSTAR":0.00018979,"MEAN_MOTION_DOT":0.00006091,"MEAN_MOTION_DDOT":0},{"OBJECT_NAME":"SPACEMOBILE-006","OBJECT_ID":"2025-309A","EPOCH":"2026-07-14T00:37:50.130624","CLASSIFICATION_TYPE":"U","MEAN_MOTION":15.18651444,"ECCENTRICITY":0.0010252,"INCLINATION":52.9935,"RA_OF_ASC_NODE":208.6897,"ARG_OF_PERICENTER":211.378,"MEAN_ANOMALY":148.6603,"EPHEMERIS_TYPE":0,"NORAD_CAT_ID":67232,"ELEMENT_SET_NO":999,"REV_AT_EPOCH":3067,"BSTAR":0.00003859,"MEAN_MOTION_DOT":0.00000488,"MEAN_MOTION_DDOT":0},{"OBJECT_NAME":"SPACEMOBILE-008","OBJECT_ID":"2026-139A","EPOCH":"2026-07-14T03:53:03.928128","CLASSIFICATION_TYPE":"U","MEAN_MOTION":15.12801197,"ECCENTRICITY":0.0005033,"INCLINATION":52.9946,"RA_OF_ASC_NODE":140.0988,"ARG_OF_PERICENTER":54.0321,"MEAN_ANOMALY":306.1136,"EPHEMERIS_TYPE":0,"NORAD_CAT_ID":69589,"ELEMENT_SET_NO":999,"REV_AT_EPOCH":406,"BSTAR":0.000010933,"MEAN_MOTION_DOT":-0.00000107,"MEAN_MOTION_DDOT":0},{"OBJECT_NAME":"SPACEMOBILE-009","OBJECT_ID":"2026-139B","EPOCH":"2026-07-14T03:55:47.184384","CLASSIFICATION_TYPE":"U","MEAN_MOTION":15.12694533,"ECCENTRICITY":0.0005276,"INCLINATION":52.9938,"RA_OF_ASC_NODE":140.1052,"ARG_OF_PERICENTER":49.9484,"MEAN_ANOMALY":310.1969,"EPHEMERIS_TYPE":0,"NORAD_CAT_ID":69590,"ELEMENT_SET_NO":999,"REV_AT_EPOCH":406,"BSTAR":0.000013084,"MEAN_MOTION_DOT":-7e-7,"MEAN_MOTION_DDOT":0},{"OBJECT_NAME":"SPACEMOBILE-010","OBJECT_ID":"2026-139C","EPOCH":"2026-07-14T04:00:06.264288","CLASSIFICATION_TYPE":"U","MEAN_MOTION":15.12526359,"ECCENTRICITY":0.0005195,"INCLINATION":52.9945,"RA_OF_ASC_NODE":140.1266,"ARG_OF_PERICENTER":41.7586,"MEAN_ANOMALY":318.3801,"EPHEMERIS_TYPE":0,"NORAD_CAT_ID":69591,"ELEMENT_SET_NO":999,"REV_AT_EPOCH":407,"BSTAR":0.000019806,"MEAN_MOTION_DOT":4.8e-7,"MEAN_MOTION_DDOT":0}]}
